QIANFAN-25              
1 61558U 24185G   25231.91431615  .00000336  00000+0  19744-3 0  9997
2 61558  88.9756  91.2030 0005673 314.6066  45.4652 14.05762720 53370
QIANFAN-26              
1 61559U 24185H   25231.85485492  .00000192  00000+0  17894-3 0  9997
2 61559  88.9772  92.1674 0006358  17.9651 342.1739 13.77727158 52856
QIANFAN-27              
1 61560U 24185J   25231.90690133  .00000424  00000+0  16813-3 0  9993
2 61560  88.9764  90.4245 0006655 320.6724  39.3986 14.27135947 53786
QIANFAN-28              
1 61561U 24185K   25231.86970843  .00000607  00000+0  24031-3 0  9992
2 61561  88.9780  90.4237 0005714 323.8400  36.2407 14.27707001 53787
QIANFAN-29              
1 61562U 24185L   25231.86540287  .00000164  00000+0  23485-3 0  9998
2 61562  88.9766  93.1982 0011317  32.2118 327.9722 13.50960868 52283
QIANFAN-30              
1 61563U 24185M   25231.90153124  .00000141  00000+0  20374-3 0  9993
2 61563  88.9771  92.6752 0008349  21.1436 339.0058 13.49933711 52573
QIANFAN-31              
1 61564U 24185N   25231.88061818  .00000097  00000+0  11785-3 0  9995
2 61564  88.9754  92.6612 0007994  19.9743 340.1723 13.57908124 52572
QIANFAN-32              
1 61565U 24185P   25231.85963350  .00000155  00000+0  22251-3 0  9990
2 61565  88.9814  92.7790 0010868  41.3777 318.8195 13.50686791 52535
